CCSDS_OMM_VERS = 2.0
CREATION_DATE  = 
ORIGINATOR     = 

OBJECT_NAME    = IDEFIX & ARIANE 42P R/B
OBJECT_ID      = 2002-021B
CENTER_NAME    = EARTH
REF_FRAME      = TEME
TIME_SYSTEM    = UTC
MEAN_ELEMENT_THEORY = SGP/SGP4

EPOCH          = 2026-01-15T20:17:24.086688
MEAN_MOTION    = 14.30979288
ECCENTRICITY   = .00116984
INCLINATION    = 98.5819
RA_OF_ASC_NODE = 315.1006
ARG_OF_PERICENTER = 348.7214
MEAN_ANOMALY   = 11.3705

EPHEMERIS_TYPE = 0
CLASSIFICATION_TYPE = U
NORAD_CAT_ID   = 27422
ELEMENT_SET_NO = 999
REV_AT_EPOCH   = 23646
BSTAR          = .84386701E-4
MEAN_MOTION_DOT = .178E-5
MEAN_MOTION_DDOT = 0

CCSDS_OMM_VERS = 2.0
CREATION_DATE  = 
ORIGINATOR     = 

OBJECT_NAME    = AQUA
OBJECT_ID      = 2002-022A
CENTER_NAME    = EARTH
REF_FRAME      = TEME
TIME_SYSTEM    = UTC
MEAN_ELEMENT_THEORY = SGP/SGP4

EPOCH          = 2026-01-15T22:05:01.470624
MEAN_MOTION    = 14.61822470
ECCENTRICITY   = .00020206
INCLINATION    = 98.4082
RA_OF_ASC_NODE = 342.3630
ARG_OF_PERICENTER = 77.1389
MEAN_ANOMALY   = 16.3168

EPHEMERIS_TYPE = 0
CLASSIFICATION_TYPE = U
NORAD_CAT_ID   = 27424
ELEMENT_SET_NO = 999
REV_AT_EPOCH   = 26102
BSTAR          = .14288563E-3
MEAN_MOTION_DOT = .664E-5
MEAN_MOTION_DDOT = 0

CCSDS_OMM_VERS = 2.0
CREATION_DATE  = 
ORIGINATOR     = 

OBJECT_NAME    = CZ-4B R/B
OBJECT_ID      = 2002-024C
CENTER_NAME    = EARTH
REF_FRAME      = TEME
TIME_SYSTEM    = UTC
MEAN_ELEMENT_THEORY = SGP/SGP4

EPOCH          = 2026-01-15T17:58:33.771936
MEAN_MOTION    = 14.14535831
ECCENTRICITY   = .00503499
INCLINATION    = 98.8948
RA_OF_ASC_NODE = 69.3937
ARG_OF_PERICENTER = 172.3185
MEAN_ANOMALY   = 297.3841

EPHEMERIS_TYPE = 0
CLASSIFICATION_TYPE = U
NORAD_CAT_ID   = 27432
ELEMENT_SET_NO = 999
REV_AT_EPOCH   = 22175
BSTAR          = .34753187E-4
MEAN_MOTION_DOT = .23E-6
MEAN_MOTION_DDOT = 0

CCSDS_OMM_VERS = 2.0
CREATION_DATE  = 
ORIGINATOR     = 

OBJECT_NAME    = MIDORI II (ADEOS-II)
OBJECT_ID      = 2002-056A
CENTER_NAME    = EARTH
REF_FRAME      = TEME
TIME_SYSTEM    = UTC
MEAN_ELEMENT_THEORY = SGP/SGP4

EPOCH          = 2026-01-15T22:46:59.018016
MEAN_MOTION    = 14.29235625
ECCENTRICITY   = .0001745
INCLINATION    = 98.7683
RA_OF_ASC_NODE = 334.0941
ARG_OF_PERICENTER = 117.0333
MEAN_ANOMALY   = 243.1027

EPHEMERIS_TYPE = 0
CLASSIFICATION_TYPE = U
NORAD_CAT_ID   = 27597
ELEMENT_SET_NO = 999
REV_AT_EPOCH   = 20276
BSTAR          = .98030024E-4
MEAN_MOTION_DOT = .204E-5
MEAN_MOTION_DDOT = 0

CCSDS_OMM_VERS = 2.0
CREATION_DATE  = 
ORIGINATOR     = 

OBJECT_NAME    = H-2A R/B
OBJECT_ID      = 2002-056E
CENTER_NAME    = EARTH
REF_FRAME      = TEME
TIME_SYSTEM    = UTC
MEAN_ELEMENT_THEORY = SGP/SGP4

EPOCH          = 2026-01-15T19:22:46.819776
MEAN_MOTION    = 14.33711719
ECCENTRICITY   = .00695715
INCLINATION    = 98.3110
RA_OF_ASC_NODE = 338.2175
ARG_OF_PERICENTER = 320.0514
MEAN_ANOMALY   = 98.1100

EPHEMERIS_TYPE = 0
CLASSIFICATION_TYPE = U
NORAD_CAT_ID   = 27601
ELEMENT_SET_NO = 999
REV_AT_EPOCH   = 20653
BSTAR          = .92795291E-4
MEAN_MOTION_DOT = .222E-5
MEAN_MOTION_DDOT = 0

CCSDS_OMM_VERS = 2.0
CREATION_DATE  = 
ORIGINATOR     = 

OBJECT_NAME    = CZ-4B R/B
OBJECT_ID      = 2003-049C
CENTER_NAME    = EARTH
REF_FRAME      = TEME
TIME_SYSTEM    = UTC
MEAN_ELEMENT_THEORY = SGP/SGP4

EPOCH          = 2026-01-15T23:33:28.722816
MEAN_MOTION    = 14.54948988
ECCENTRICITY   = .004891
INCLINATION    = 98.6815
RA_OF_ASC_NODE = 8.8449
ARG_OF_PERICENTER = 33.7239
MEAN_ANOMALY   = 326.7052

EPHEMERIS_TYPE = 0
CLASSIFICATION_TYPE = U
NORAD_CAT_ID   = 28059
ELEMENT_SET_NO = 999
REV_AT_EPOCH   = 17893
BSTAR          = .83492188E-4
MEAN_MOTION_DOT = .313E-5
MEAN_MOTION_DDOT = 0

CCSDS_OMM_VERS = 2.0
CREATION_DATE  = 
ORIGINATOR     = 

OBJECT_NAME    = CZ-2C R/B
OBJECT_ID      = 2004-012C
CENTER_NAME    = EARTH
REF_FRAME      = TEME
TIME_SYSTEM    = UTC
MEAN_ELEMENT_THEORY = SGP/SGP4

EPOCH          = 2026-01-15T17:43:04.517472
MEAN_MOTION    = 15.58457332
ECCENTRICITY   = .00171084
INCLINATION    = 97.7367
RA_OF_ASC_NODE = 76.2339
ARG_OF_PERICENTER = 143.2999
MEAN_ANOMALY   = 216.9431

EPHEMERIS_TYPE = 0
CLASSIFICATION_TYPE = U
NORAD_CAT_ID   = 28222
ELEMENT_SET_NO = 999
REV_AT_EPOCH   = 19601
BSTAR          = .35310228E-3
MEAN_MOTION_DOT = .27021E-3
MEAN_MOTION_DDOT = 0

CCSDS_OMM_VERS = 2.0
CREATION_DATE  = 
ORIGINATOR     = 

OBJECT_NAME    = SL-16 R/B
OBJECT_ID      = 2004-021B
CENTER_NAME    = EARTH
REF_FRAME      = TEME
TIME_SYSTEM    = UTC
MEAN_ELEMENT_THEORY = SGP/SGP4

EPOCH          = 2026-01-15T23:42:56.643840
MEAN_MOTION    = 14.14592745
ECCENTRICITY   = .00030008
INCLINATION    = 71.0030
RA_OF_ASC_NODE = 343.0909
ARG_OF_PERICENTER = 142.3228
MEAN_ANOMALY   = 217.8105

EPHEMERIS_TYPE = 0
CLASSIFICATION_TYPE = U
NORAD_CAT_ID   = 28353
ELEMENT_SET_NO = 999
REV_AT_EPOCH   = 11538
BSTAR          = -.10069254E-4
MEAN_MOTION_DOT = -.67E-6
MEAN_MOTION_DDOT = 0

CCSDS_OMM_VERS = 2.0
CREATION_DATE  = 
ORIGINATOR     = 

OBJECT_NAME    = CZ-4B R/B
OBJECT_ID      = 2004-035C
CENTER_NAME    = EARTH
REF_FRAME      = TEME
TIME_SYSTEM    = UTC
MEAN_ELEMENT_THEORY = SGP/SGP4

EPOCH          = 2026-01-15T14:55:28.694496
MEAN_MOTION    = 15.28000125
ECCENTRICITY   = .0033541
INCLINATION    = 97.3575
RA_OF_ASC_NODE = 50.5219
ARG_OF_PERICENTER = 154.2816
MEAN_ANOMALY   = 206.0100

EPHEMERIS_TYPE = 0
CLASSIFICATION_TYPE = U
NORAD_CAT_ID   = 28415
ELEMENT_SET_NO = 999
REV_AT_EPOCH   = 17180
BSTAR          = .16847E-3
MEAN_MOTION_DOT = .4601E-4
MEAN_MOTION_DDOT = 0

CCSDS_OMM_VERS = 2.0
CREATION_DATE  = 
ORIGINATOR     = 

OBJECT_NAME    = CZ-2C R/B
OBJECT_ID      = 2004-046B
CENTER_NAME    = EARTH
REF_FRAME      = TEME
TIME_SYSTEM    = UTC
MEAN_ELEMENT_THEORY = SGP/SGP4

EPOCH          = 2026-01-15T18:08:55.446720
MEAN_MOTION    = 14.26965885
ECCENTRICITY   = .01386302
INCLINATION    = 98.2001
RA_OF_ASC_NODE = 294.0240
ARG_OF_PERICENTER = 311.8090
MEAN_ANOMALY   = 47.1318

EPHEMERIS_TYPE = 0
CLASSIFICATION_TYPE = U
NORAD_CAT_ID   = 28480
ELEMENT_SET_NO = 999
REV_AT_EPOCH   = 10095
BSTAR          = .56386784E-4
MEAN_MOTION_DOT = .109E-5
MEAN_MOTION_DDOT = 0

CCSDS_OMM_VERS = 2.0
CREATION_DATE  = 
ORIGINATOR     = 

OBJECT_NAME    = ARIANE 5 R/B
OBJECT_ID      = 2004-049H
CENTER_NAME    = EARTH
REF_FRAME      = TEME
TIME_SYSTEM    = UTC
MEAN_ELEMENT_THEORY = SGP/SGP4

EPOCH          = 2026-01-15T21:08:19.249440
MEAN_MOTION    = 14.85121393
ECCENTRICITY   = .00847629
INCLINATION    = 98.2546
RA_OF_ASC_NODE = 182.3931
ARG_OF_PERICENTER = 161.4908
MEAN_ANOMALY   = 198.9422

EPHEMERIS_TYPE = 0
CLASSIFICATION_TYPE = U
NORAD_CAT_ID   = 28499
ELEMENT_SET_NO = 999
REV_AT_EPOCH   = 13795
BSTAR          = .96544717E-4
MEAN_MOTION_DOT = .816E-5
MEAN_MOTION_DDOT = 0

CCSDS_OMM_VERS = 2.0
CREATION_DATE  = 
ORIGINATOR     = 

OBJECT_NAME    = CZ-2D R/B
OBJECT_ID      = 2005-024B
CENTER_NAME    = EARTH
REF_FRAME      = TEME
TIME_SYSTEM    = UTC
MEAN_ELEMENT_THEORY = SGP/SGP4

EPOCH          = 2026-01-15T14:03:13.453632
MEAN_MOTION    = 15.55485847
ECCENTRICITY   = .0004366
INCLINATION    = 97.3622
RA_OF_ASC_NODE = 28.9748
ARG_OF_PERICENTER = 188.4729
MEAN_ANOMALY   = 171.6452

EPHEMERIS_TYPE = 0
CLASSIFICATION_TYPE = U
NORAD_CAT_ID   = 28738
ELEMENT_SET_NO = 999
REV_AT_EPOCH   = 13151
BSTAR          = .3108E-3
MEAN_MOTION_DOT = .2114E-3
MEAN_MOTION_DDOT = 0

