IDEFIX & ARIANE 42P R/B 
1 27422U 02021B   26015.84541767  .00000178  00000+0  84387-4 0  9997
2 27422  98.5819 315.1006 0011698 348.7214  11.3705 14.30979288236468
AQUA                    
1 27424U 02022A   26015.92015591  .00000664  00000+0  14289-3 0  9993
2 27424  98.4082 342.3630 0002020  77.1389  16.3168 14.61822470261023
CZ-4B R/B               
1 27432U 02024C   26015.74900199  .00000023  00000+0  34753-4 0  9999
2 27432  98.8948  69.3937 0050349 172.3185 297.3841 14.14535831221757
MIDORI II (ADEOS-II)    
1 27597U 02056A   26015.94929419  .00000204  00000+0  98030-4 0  9993
2 27597  98.7683 334.0941 0001745 117.0333 243.1027 14.29235625202767
H-2A R/B                
1 27601U 02056E   26015.80748634  .00000222  00000+0  92795-4 0  9994
2 27601  98.3110 338.2175 0069571 320.0514  98.1100 14.33711719206534
CZ-4B R/B               
1 28059U 03049C   26015.98158244  .00000313  00000+0  83492-4 0  9991
2 28059  98.6815   8.8449 0048910  33.7239 326.7052 14.54948988178938
CZ-2C R/B               
1 28222U 04012C   26015.73824673  .00027021  00000+0  35310-3 0  9993
2 28222  97.7367  76.2339 0017108 143.2999 216.9431 15.58457332196017
SL-16 R/B               
1 28353U 04021B   26015.98815560 -.00000067  00000+0 -10069-4 0  9998
2 28353  71.0030 343.0909 0003000 142.3228 217.8105 14.14592745115381
CZ-4B R/B               
1 28415U 04035C   26015.62185989  .00004601  00000+0  16847-3 0  9993
2 28415  97.3575  50.5219 0033541 154.2816 206.0100 15.28000125171803
CZ-2C R/B               
1 28480U 04046B   26015.75619730  .00000109  00000+0  56387-4 0  9990
2 28480  98.2001 294.0240 0138630 311.8090  47.1318 14.26965885100951
ARIANE 5 R/B            
1 28499U 04049H   26015.88077835  .00000816  00000+0  96545-4 0  9996
2 28499  98.2546 182.3931 0084762 161.4908 198.9422 14.85121393137958
CZ-2D R/B               
1 28738U 05024B   26015.58557238  .00021140  00000+0  31080-3 0  9998
2 28738  97.3622  28.9748 0004366 188.4729 171.6452 15.55485847131514
